address,state,postcode,locality_name,street_name,lot_number,lat,lon,orientation_degrees,orientation_cardinal
7 CHARLES STREET,NSW,2068,CASTLECRAG,CHARLES,146,-33.80155862,151.21464693,184.68072907634382,S
22 THE PARAPET,NSW,2068,CASTLECRAG,THE PARAPET,49,-33.80397958,151.21562545,342.41179784827295,N
24 THE PARAPET,NSW,2068,CASTLECRAG,THE PARAPET,48,-33.80397964,151.21544514,358.27731441357224,N
27 THE PARAPET,NSW,2068,CASTLECRAG,THE PARAPET,33,-33.80317406,151.21438858,30.565428407986186,NE
109 EASTERN VALLEY WAY,NSW,2068,CASTLECRAG,EASTERN VALLEY,10,-33.80140107,151.21151049,23.992642613019722,NE
73 EASTERN VALLEY WAY,NSW,2068,CASTLECRAG,EASTERN VALLEY,1,-33.80446476,151.21002815,160.94683762227146,S
3 THE BARRICADE,NSW,2068,CASTLECRAG,THE BARRICADE,413,-33.80188692,151.22216852,323.7473172546273,NW
7 THE BARRICADE,NSW,2068,CASTLECRAG,THE BARRICADE,415,-33.8023365,151.22225003,356.7099296670343,N
9 THE BARRICADE,NSW,2068,CASTLECRAG,THE BARRICADE,402,-33.80237713,151.22256421,349.506271242572,N
6 THE PARAPET,NSW,2068,CASTLECRAG,THE PARAPET,57,-33.80284734,151.21623696,70.38008830767745,E
11 THE RAMPART,NSW,2068,CASTLECRAG,THE RAMPART,76,-33.80407648,151.21621813,146.46164125758966,SE
"UNIT 1, 125 EASTERN VALLEY WAY",NSW,2068,CASTLECRAG,EASTERN VALLEY,,-33.8003518,151.21105069,359.3836136789076,N
7 EDITH STREET,NSW,2068,CASTLECRAG,EDITH,206,-33.80128518,151.21559922,4.680744032768696,N
10A THE POSTERN,NSW,2068,CASTLECRAG,THE POSTERN,,-33.80414998,151.21241543,11.295949771762873,N
21 WINDSOR ROAD,NSW,2068,WILLOUGHBY,WINDSOR,5,-33.80425926,151.20850189,304.0989248612639,NW
64 EDINBURGH ROAD,NSW,2068,WILLOUGHBY,EDINBURGH,7,-33.80270073,151.20977184,352.56847085044893,N
72 EDINBURGH ROAD,NSW,2068,WILLOUGHBY,EDINBURGH,4,-33.80270046,151.21037164,357.44568646198775,N
74 EDINBURGH ROAD,NSW,2068,WILLOUGHBY,EDINBURGH,5,-33.80269886,151.21052317,2.1525134799389662,N
56 EDINBURGH ROAD,NSW,2068,WILLOUGHBY,EDINBURGH,3,-33.80269524,151.2091173,2.762911195397346,N
"LEVEL 1, 165 EASTERN VALLEY WAY",NSW,2068,MIDDLE COVE,EASTERN VALLEY,,-33.79733574,151.20981141,30.52139578140443,NE
41 THE RAMPART,NSW,2068,CASTLECRAG,THE RAMPART,91,-33.80359896,151.21334639,35.69285572038162,NE
48 THE RAMPART,NSW,2068,CASTLECRAG,THE RAMPART,138,-33.80377004,151.21287288,134.98741006511563,SE
30 THE RAMPART,NSW,2068,CASTLECRAG,THE RAMPART,149,-33.80494423,151.21458161,183.69180512850303,S
32 THE RAMPART,NSW,2068,CASTLECRAG,THE RAMPART,148,-33.80492285,151.21436661,189.94385219803738,S
36 THE RAMPART,NSW,2068,CASTLECRAG,THE RAMPART,146,-33.80479781,151.21400901,198.2418492037515,S
38 THE RAMPART,NSW,2068,CASTLECRAG,THE RAMPART,143,-33.80446063,151.21347758,343.52162946602385,N
4 THE RAMPART,NSW,2068,CASTLECRAG,THE RAMPART,162,-33.80407498,151.21694612,141.16513349085213,SE
40 THE RAMPART,NSW,2068,CASTLECRAG,THE RAMPART,142,-33.80432627,151.21335445,226.3958021788579,SW
42 THE RAMPART,NSW,2068,CASTLECRAG,THE RAMPART,141,-33.80417105,151.21323478,230.81253748229753,SW
44 THE RAMPART,NSW,2068,CASTLECRAG,THE RAMPART,51,-33.80394267,151.21316999,224.2132248880453,SW
46 THE RAMPART,NSW,2068,CASTLECRAG,THE RAMPART,139,-33.80388082,151.21299666,215.69273892738002,SW
20 CHARLES STREET,NSW,2068,CASTLECRAG,CHARLES,123,-33.800738,151.21366238,242.2002484256377,SW
91 EASTERN VALLEY WAY,NSW,2068,CASTLECRAG,EASTERN VALLEY,46,-33.80373092,151.21167839,49.9148553050242,NE
97 EASTERN VALLEY WAY,NSW,2068,CASTLECRAG,EASTERN VALLEY,43,-33.80324581,151.21197511,4.244561426359646,N
99 EASTERN VALLEY WAY,NSW,2068,CASTLECRAG,EASTERN VALLEY,12,-33.80308596,151.21205143,180.61250537471884,S
173 EASTERN VALLEY WAY,NSW,2068,MIDDLE COVE,EASTERN VALLEY,6,-33.79684784,151.20959558,16.061948364307266,N
11 SUGARLOAF CRESCENT,NSW,2068,CASTLECRAG,SUGARLOAF,238,-33.79750448,151.21091449,345.29207242252085,N
110 SUGARLOAF CRESCENT,NSW,2068,CASTLECRAG,SUGARLOAF,10,-33.79655752,151.21286448,41.90112335310235,NE
32 SUGARLOAF CRESCENT,NSW,2068,CASTLECRAG,SUGARLOAF,323,-33.7986084,151.21233362,195.77292373040612,S
35 SUGARLOAF CRESCENT,NSW,2068,CASTLECRAG,SUGARLOAF,269,-33.79849524,151.21363701,16.203523821815146,N
12 THE POSTERN,NSW,2068,CASTLECRAG,THE POSTERN,137,-33.80359107,151.21272391,314.98732564813747,NW
14 THE POSTERN,NSW,2068,CASTLECRAG,THE POSTERN,94,-33.80359758,151.2125292,314.9873122387148,NW
"UNIT 1, 3 THE POSTERN",NSW,2068,CASTLECRAG,THE POSTERN,1,-33.80298284,151.21321587,38.01405636172451,NE
"UNIT 3, 3 THE POSTERN",NSW,2068,CASTLECRAG,THE POSTERN,3,-33.80298284,151.21321587,38.01405636172451,NE
3 THE POSTERN,NSW,2068,CASTLECRAG,THE POSTERN,CP,-33.80298284,151.21321587,38.01405636172451,NE
6 THE POSTERN,NSW,2068,CASTLECRAG,THE POSTERN,36,-33.80327761,151.21347713,37.87346095920527,NE
8 THE POSTERN,NSW,2068,CASTLECRAG,THE POSTERN,92,-33.80339359,151.21331766,217.87340945760593,SW
9 THE POSTERN,NSW,2068,CASTLECRAG,THE POSTERN,A,-33.80310515,151.21257458,2.8558093658447783,N
22 THE RAMPART,NSW,2068,CASTLECRAG,THE RAMPART,153,-33.8048954,151.21540832,169.63191696080503,S
25 THE RAMPART,NSW,2068,CASTLECRAG,THE RAMPART,83,-33.80443772,151.214901,184.30987456251373,S
27 THE RAMPART,NSW,2068,CASTLECRAG,THE RAMPART,84,-33.80442578,151.2147109,184.3098751598329,S
29 THE RAMPART,NSW,2068,CASTLECRAG,THE RAMPART,85,-33.80427953,151.21445087,195.74127654098268,S
134A EASTERN VALLEY WAY,NSW,2068,WILLOUGHBY EAST,EASTERN VALLEY,,-33.80015935,151.21025491,316.0093306743242,NW
60 EDINBURGH ROAD,NSW,2068,WILLOUGHBY,EDINBURGH,5,-33.80269745,151.20944506,2.76291112523594,N
4B THE HIGH TOR,NSW,2068,CASTLECRAG,THE HIGH TOR,17,-33.79987006,151.22843824,279.69867878042805,W
155 EASTERN VALLEY WAY,NSW,2068,CASTLECRAG,EASTERN VALLEY,B,-33.79779007,151.20996666,345.29211929615724,N
16 THE RAMPART,NSW,2068,CASTLECRAG,THE RAMPART,,-33.80467283,151.21607462,161.25145285769577,S
11A THE OUTPOST,NSW,2063,NORTHBRIDGE,THE OUTPOST,,-33.80594677,151.21319151,198.715049150714,S
10 THE OUTPOST,NSW,2063,NORTHBRIDGE,THE OUTPOST,,-33.80549054,151.21230178,202.29258340002008,S
9 ROCKLEY STREET,NSW,2068,CASTLECRAG,ROCKLEY,,-33.80410593,151.22104457,186.5332477099985,S
8 THE RAMPART,NSW,2068,CASTLECRAG,THE RAMPART,160,-33.80436275,151.21668451,152.22131583237302,SE
1 THE BARRICADE,NSW,2068,CASTLECRAG,THE BARRICADE,412,-33.801705,151.22209844,152.01491673563612,SE
15 THE BARRICADE,NSW,2068,CASTLECRAG,THE BARRICADE,1,-33.80189067,151.22277772,201.7768525808063,S
7 THE RAMPART,NSW,2068,CASTLECRAG,THE RAMPART,74,-33.80386061,151.21650494,146.46157523429233,SE
9 THE RAMPART,NSW,2068,CASTLECRAG,THE RAMPART,75,-33.80396686,151.2163649,146.46160776684914,SE
14 THE BARBETTE,NSW,2068,CASTLECRAG,THE BARBETTE,191,-33.80451025,151.21891694,15.007501638877681,N
16 THE BARBETTE,NSW,2068,CASTLECRAG,THE BARBETTE,2,-33.80453743,151.21871147,9.24683500763967,N
18 THE BARBETTE,NSW,2068,CASTLECRAG,THE BARBETTE,1,-33.8045006,151.21848742,0.20665954249585033,N
2 THE BARBETTE,NSW,2068,CASTLECRAG,THE BARBETTE,197,-33.8044021,151.22010356,285.2467543317579,W
4 THE BARBETTE,NSW,2068,CASTLECRAG,THE BARBETTE,196,-33.80451395,151.21988473,5.349733820030631,N
5 THE BARBETTE,NSW,2068,CASTLECRAG,THE BARBETTE,186,-33.80399737,151.21868825,352.41019927568726,N
9 THE BARBETTE,NSW,2068,CASTLECRAG,THE BARBETTE,188,-33.80427291,151.21837048,349.7240813862754,N
72 SUGARLOAF CRESCENT,NSW,2068,CASTLECRAG,SUGARLOAF,301,-33.79840833,151.21516864,84.3239640047849,E
73 SUGARLOAF CRESCENT,NSW,2068,CASTLECRAG,SUGARLOAF,4,-33.7963662,151.21141538,220.2699088435838,SW
1 EDITH STREET,NSW,2068,CASTLECRAG,EDITH,209,-33.80132988,151.21608903,4.680741602151279,N
11 EDITH STREET,NSW,2068,CASTLECRAG,EDITH,204,-33.80122662,151.21527506,4.680747226208901,N
13 EDITH STREET,NSW,2068,CASTLECRAG,EDITH,203,-33.80119444,151.21511457,4.680748984906388,N
15A EDITH STREET,NSW,2068,CASTLECRAG,EDITH,2,-33.80138495,151.21492021,4.680738565511647,N
15 EDITH STREET,NSW,2068,CASTLECRAG,EDITH,1,-33.80124088,151.21496103,4.680746442867694,N
17 EDITH STREET,NSW,2068,CASTLECRAG,EDITH,2,-33.8010514,151.21467955,4.680756789031546,N
3 THE RAMPART,NSW,2068,CASTLECRAG,THE RAMPART,72,-33.80365408,151.21673649,179.96705959725932,S
134 EASTERN VALLEY WAY,NSW,2068,WILLOUGHBY EAST,EASTERN VALLEY,42,-33.80015935,151.21025491,316.0093306743242,NW
108 EASTERN VALLEY WAY,NSW,2068,WILLOUGHBY EAST,EASTERN VALLEY,56,-33.80160192,151.21088885,291.8388904228199,W
154 EASTERN VALLEY WAY,NSW,2068,WILLOUGHBY EAST,EASTERN VALLEY,15,-33.79907814,151.20978003,279.02322862937683,W
142 EASTERN VALLEY WAY,NSW,2068,WILLOUGHBY EAST,EASTERN VALLEY,38,-33.79974797,151.21007257,188.68847850917248,S
138 EASTERN VALLEY WAY,NSW,2068,WILLOUGHBY EAST,EASTERN VALLEY,40,-33.7999525,151.21016315,181.3194199744578,S
136 EASTERN VALLEY WAY,NSW,2068,WILLOUGHBY EAST,EASTERN VALLEY,1,-33.80001995,151.2103071,325.03212758198487,NW
132 EASTERN VALLEY WAY,NSW,2068,WILLOUGHBY EAST,EASTERN VALLEY,43,-33.80026312,151.21030087,311.9912838064773,NW
128 EASTERN VALLEY WAY,NSW,2068,WILLOUGHBY EAST,EASTERN VALLEY,45,-33.80047054,151.21039265,298.8269605240252,NW
122 EASTERN VALLEY WAY,NSW,2068,WILLOUGHBY EAST,EASTERN VALLEY,49,-33.80088215,151.21057413,231.84152208305537,SW
190 EASTERN VALLEY WAY,NSW,2068,WILLOUGHBY EAST,EASTERN VALLEY,38,-33.79627995,151.20855268,331.6589655554486,NW
172 EASTERN VALLEY WAY,NSW,2068,WILLOUGHBY EAST,EASTERN VALLEY,6,-33.79809954,151.20934065,279.53485176173945,W
162 EASTERN VALLEY WAY,NSW,2068,WILLOUGHBY EAST,EASTERN VALLEY,11,-33.79863178,151.20957957,197.65015003319598,S
69 EASTERN VALLEY WAY,NSW,2068,CASTLECRAG,EASTERN VALLEY,2,-33.80473894,151.2096171,0.22417076421154558,N
101 EASTERN VALLEY WAY,NSW,2068,CASTLECRAG,EASTERN VALLEY,6,-33.80191879,151.21173832,359.0809507273375,N
111 EASTERN VALLEY WAY,NSW,2068,CASTLECRAG,EASTERN VALLEY,,-33.80127152,151.21145381,12.671949492810322,N
2A SUGARLOAF CRESCENT,NSW,2068,CASTLECRAG,SUGARLOAF,,-33.79835358,151.2102027,165.29221521300582,S
163A EASTERN VALLEY WAY,NSW,2068,MIDDLE COVE,EASTERN VALLEY,,-33.79740917,151.20984442,44.44645101512582,NE
2 LINCOLN AVENUE,NSW,2068,CASTLECRAG,LINCOLN,16,-33.79774764,151.21160383,166.0598741447299,S
103 EASTERN VALLEY WAY,NSW,2068,CASTLECRAG,EASTERN VALLEY,7,-33.80178931,151.21168111,359.08094934031436,N
33A THE RAMPART,NSW,2068,CASTLECRAG,THE RAMPART,,-33.80403858,151.21390616,345.9286683995087,N
7 WINDSOR ROAD,NSW,2068,WILLOUGHBY,WINDSOR,2,-33.8034078,151.20865213,182.76288819461362,S
11 WINDSOR ROAD,NSW,2068,WILLOUGHBY,WINDSOR,1,-33.80367578,151.20870654,182.7628795513076,S
17 WINDSOR ROAD,NSW,2068,WILLOUGHBY,WINDSOR,3,-33.80404006,151.20857925,182.7628677936277,S
19 WINDSOR ROAD,NSW,2068,WILLOUGHBY,WINDSOR,4,-33.80415124,151.20854095,182.7628642056616,S
52 EDINBURGH ROAD,NSW,2068,WILLOUGHBY,EDINBURGH,1,-33.80269257,151.20878568,2.7629112828470315,N
54 EDINBURGH ROAD,NSW,2068,WILLOUGHBY,EDINBURGH,2,-33.80269398,151.2089542,2.7629112373752767,N
4 THE OUTPOST,NSW,2063,NORTHBRIDGE,THE OUTPOST,344A,-33.80602056,151.21265921,212.4008954221256,SW
139 EASTERN VALLEY WAY,NSW,2068,CASTLECRAG,EASTERN VALLEY,1,-33.7994487,151.21065572,159.97328131720639,S
137 EASTERN VALLEY WAY,NSW,2068,CASTLECRAG,EASTERN VALLEY,24,-33.79957729,151.21071184,159.9733108525329,S
133 EASTERN VALLEY WAY,NSW,2068,CASTLECRAG,EASTERN VALLEY,22,-33.79983449,151.21082429,242.9773690396245,SW
131 EASTERN VALLEY WAY,NSW,2068,CASTLECRAG,EASTERN VALLEY,21,-33.79996459,151.21088129,242.97733413824804,SW
129 EASTERN VALLEY WAY,NSW,2068,CASTLECRAG,EASTERN VALLEY,20,-33.8000931,151.21093735,359.3836118179249,N
127 EASTERN VALLEY WAY,NSW,2068,CASTLECRAG,EASTERN VALLEY,1,-33.80022186,151.21099387,359.3836127435846,N
121 EASTERN VALLEY WAY,NSW,2068,CASTLECRAG,EASTERN VALLEY,16,-33.80060988,151.21116349,359.3836155399621,N
197 EASTERN VALLEY WAY,NSW,2068,MIDDLE COVE,EASTERN VALLEY,18,-33.79539692,151.2089277,276.3563987293014,W
195 EASTERN VALLEY WAY,NSW,2068,MIDDLE COVE,EASTERN VALLEY,17A,-33.79551287,151.20897884,272.5069459290527,W
193 EASTERN VALLEY WAY,NSW,2068,MIDDLE COVE,EASTERN VALLEY,4,-33.79567146,151.20904706,351.99141519222553,N
187 EASTERN VALLEY WAY,NSW,2068,MIDDLE COVE,EASTERN VALLEY,14,-33.79603542,151.2092071,355.0964822444732,N
169 EASTERN VALLEY WAY,NSW,2068,MIDDLE COVE,EASTERN VALLEY,41,-33.79700859,151.20966661,2.906035850803122,N
165 EASTERN VALLEY WAY,NSW,2068,MIDDLE COVE,EASTERN VALLEY,39,-33.79733574,151.20981141,30.52139578140443,NE
163 EASTERN VALLEY WAY,NSW,2068,MIDDLE COVE,EASTERN VALLEY,3,-33.79740917,151.20984442,44.44645101512582,NE
"UNIT 2, 82-84 EDINBURGH ROAD",NSW,2068,WILLOUGHBY,EDINBURGH,2,-33.80266417,151.2112518,268.4060582287295,W
"UNIT 3, 82-84 EDINBURGH ROAD",NSW,2068,WILLOUGHBY,EDINBURGH,,-33.80266417,151.2112518,268.4060582287295,W
"UNIT 4, 82-84 EDINBURGH ROAD",NSW,2068,WILLOUGHBY,EDINBURGH,4,-33.80266417,151.2112518,268.4060582287295,W
120A EASTERN VALLEY WAY,NSW,2068,WILLOUGHBY EAST,EASTERN VALLEY,51,-33.8010146,151.21060026,214.54568535497853,SW
118 EASTERN VALLEY WAY,NSW,2068,WILLOUGHBY EAST,EASTERN VALLEY,51,-33.80106564,151.2107489,194.9669146667606,S
"UNIT 2, 125 EASTERN VALLEY WAY",NSW,2068,CASTLECRAG,EASTERN VALLEY,,-33.8003518,151.21105069,359.3836136789076,N
152 EASTERN VALLEY WAY,NSW,2068,WILLOUGHBY EAST,EASTERN VALLEY,16,-33.79919358,151.20983117,258.14447487905636,W
20 THE POSTERN,NSW,2068,CASTLECRAG,THE POSTERN,,-33.80324782,151.2130845,344.45691192552744,N
10B THE OUTPOST,NSW,2063,NORTHBRIDGE,THE OUTPOST,,-33.80590729,151.21206457,184.81938427607335,S
81 EASTERN VALLEY WAY,NSW,2068,CASTLECRAG,EASTERN VALLEY,51,-33.80419766,151.21074774,162.05033564440433,S
"UNIT 2, 69 EASTERN VALLEY WAY",NSW,2068,CASTLECRAG,EASTERN VALLEY,2,-33.80473894,151.2096171,0.22417076421154558,N
"UNIT 1, 69 EASTERN VALLEY WAY",NSW,2068,CASTLECRAG,EASTERN VALLEY,1,-33.80473894,151.2096171,0.22417076421154558,N
89 EASTERN VALLEY WAY,NSW,2068,CASTLECRAG,EASTERN VALLEY,47,-33.80388898,151.21155761,49.91477787193903,NE
50 MOWBRAY PLACE,NSW,2068,WILLOUGHBY,MOWBRAY,,-33.8053078,151.20854988,238.69035158597165,SW
"UNIT 7, 3 THE POSTERN",NSW,2068,CASTLECRAG,THE POSTERN,,-33.80294582,151.21321263,38.01407017581705,NE
"UNIT 1, 99 EASTERN VALLEY WAY",NSW,2068,CASTLECRAG,EASTERN VALLEY,,-33.80308596,151.21205143,180.61250537471884,S
"UNIT 2, 99 EASTERN VALLEY WAY",NSW,2068,CASTLECRAG,EASTERN VALLEY,,-33.80308596,151.21205143,180.61250537471884,S
"UNIT 3, 99 EASTERN VALLEY WAY",NSW,2068,CASTLECRAG,EASTERN VALLEY,,-33.80308596,151.21205143,180.61250537471884,S
"UNIT 5, 99 EASTERN VALLEY WAY",NSW,2068,CASTLECRAG,EASTERN VALLEY,,-33.80308596,151.21205143,180.61250537471884,S
"UNIT 7, 99 EASTERN VALLEY WAY",NSW,2068,CASTLECRAG,EASTERN VALLEY,,-33.80308596,151.21205143,180.61250537471884,S
"UNIT 8, 99 EASTERN VALLEY WAY",NSW,2068,CASTLECRAG,EASTERN VALLEY,,-33.80308596,151.21205143,180.61250537471884,S
193A EASTERN VALLEY WAY,NSW,2068,MIDDLE COVE,EASTERN VALLEY,,-33.79567146,151.20904706,351.99141519222553,N
"UNIT 5, 3 THE POSTERN",NSW,2068,CASTLECRAG,THE POSTERN,,-33.80294582,151.21321263,38.01407017581705,NE
113 EASTERN VALLEY WAY,NSW,2068,CASTLECRAG,EASTERN VALLEY,12,-33.80114161,151.21139672,179.3836193674674,S
107 EASTERN VALLEY WAY,NSW,2068,CASTLECRAG,EASTERN VALLEY,1,-33.80152917,151.21156708,34.185437013512214,NE
207 EASTERN VALLEY WAY,NSW,2068,MIDDLE COVE,EASTERN VALLEY,23,-33.79481833,151.20867096,291.171472781321,W
201 EASTERN VALLEY WAY,NSW,2068,MIDDLE COVE,EASTERN VALLEY,20,-33.79516608,151.20882537,283.29486179654737,W
18A THE POSTERN,NSW,2068,CASTLECRAG,THE POSTERN,441,-33.80350286,151.21191567,184.24454869222063,S
57 REMBRANDT DRIVE,NSW,2068,MIDDLE COVE,REMBRANDT,73,-33.79526461,151.2141507,39.9352288324342,NE
61 REMBRANDT DRIVE,NSW,2068,MIDDLE COVE,REMBRANDT,75,-33.79518112,151.21364043,58.312287080165774,NE
65 REMBRANDT DRIVE,NSW,2068,MIDDLE COVE,REMBRANDT,77,-33.79509974,151.213218,60.70718395395765,NE
67 REMBRANDT DRIVE,NSW,2068,MIDDLE COVE,REMBRANDT,78,-33.79504048,151.21303963,54.57537984355245,NE
40 REMBRANDT DRIVE,NSW,2068,MIDDLE COVE,REMBRANDT,C,-33.79486311,151.21527495,337.97069130260417,N
41 REMBRANDT DRIVE,NSW,2068,MIDDLE COVE,REMBRANDT,65,-33.79506836,151.21609804,353.56372876802885,N
45 REMBRANDT DRIVE,NSW,2068,MIDDLE COVE,REMBRANDT,67,-33.79534489,151.21577031,344.1951279789178,N
47 REMBRANDT DRIVE,NSW,2068,MIDDLE COVE,REMBRANDT,68,-33.79538958,151.21556194,338.6961462404993,N
48 REMBRANDT DRIVE,NSW,2068,MIDDLE COVE,REMBRANDT,147,-33.7947659,151.21431513,56.80802551567514,NE
69 REMBRANDT DRIVE,NSW,2068,MIDDLE COVE,REMBRANDT,79,-33.79497398,151.21285374,67.49426918507667,NE
73 REMBRANDT DRIVE,NSW,2068,MIDDLE COVE,REMBRANDT,155,-33.7948353,151.21248626,50.23897465078225,NE
75 REMBRANDT DRIVE,NSW,2068,MIDDLE COVE,REMBRANDT,156,-33.79476049,151.21227332,37.213000025614804,NE
5 THE HIGH TOR,NSW,2068,CASTLECRAG,THE HIGH TOR,,-33.79948866,151.22760307,16.138678409634036,N
7 THE HIGH TOR,NSW,2068,CASTLECRAG,THE HIGH TOR,32,-33.79965764,151.22772836,52.55143704212643,NE
1 THE RAMPART,NSW,2068,CASTLECRAG,THE RAMPART,71,-33.80352455,151.21683283,179.96705954315314,S
12 THE RAMPART,NSW,2068,CASTLECRAG,THE RAMPART,158,-33.80456136,151.21639083,157.45180825063892,SE
17 THE RAMPART,NSW,2068,CASTLECRAG,THE RAMPART,79,-33.80434344,151.21572025,345.1879584113875,N
19 THE RAMPART,NSW,2068,CASTLECRAG,THE RAMPART,80,-33.80437918,151.2155443,345.18796422378216,N
12 SUGARLOAF CRESCENT,NSW,2068,CASTLECRAG,SUGARLOAF,333,-33.79813613,151.21092646,165.2921795242506,S
1 SORTIE PORT,NSW,2068,CASTLECRAG,SORTIE,172,-33.80343498,151.21745978,152.64148286385466,SE
10 SORTIE PORT,NSW,2068,CASTLECRAG,SORTIE,66,-33.80267913,151.21682639,53.42204154812437,NE
12 SORTIE PORT,NSW,2068,CASTLECRAG,SORTIE,65,-33.80255546,151.21668285,41.45281889383574,NE
6 SORTIE PORT,NSW,2068,CASTLECRAG,SORTIE,68,-33.80302508,151.21691622,98.55880692713879,E
10 SUGARLOAF CRESCENT,NSW,2068,CASTLECRAG,SUGARLOAF,334,-33.79815058,151.21078711,165.29218174691513,S
100 SUGARLOAF CRESCENT,NSW,2068,CASTLECRAG,SUGARLOAF,289,-33.79707269,151.2136012,28.178730017599992,NE
106 SUGARLOAF CRESCENT,NSW,2068,CASTLECRAG,SUGARLOAF,286,-33.7967836,151.21321173,42.02424904179143,NE
108 SUGARLOAF CRESCENT,NSW,2068,CASTLECRAG,SUGARLOAF,285,-33.7966762,151.21310177,42.0242840554217,NE
11 THE HIGH TOR,NSW,2068,CASTLECRAG,THE HIGH TOR,30,-33.80002581,151.22779565,101.12821714759795,E
13 THE HIGH TOR,NSW,2068,CASTLECRAG,THE HIGH TOR,29,-33.80020704,151.22776449,98.99374158038115,E
15 THE HIGH TOR,NSW,2068,CASTLECRAG,THE HIGH TOR,28,-33.80041392,151.22769492,338.2826357984105,N
50 SUGARLOAF CRESCENT,NSW,2068,CASTLECRAG,SUGARLOAF,314,-33.79905723,151.21355837,196.20341903536067,S
54 SUGARLOAF CRESCENT,NSW,2068,CASTLECRAG,SUGARLOAF,312,-33.79896959,151.21396963,159.73233192211168,S
58 SUGARLOAF CRESCENT,NSW,2068,CASTLECRAG,SUGARLOAF,310,-33.79887133,151.21429255,155.24245924653238,SE
6 SUGARLOAF CRESCENT,NSW,2068,CASTLECRAG,SUGARLOAF,336,-33.79824914,151.21050151,165.2921979929908,S
11 THE PARAPET,NSW,2068,CASTLECRAG,THE PARAPET,26,-33.80339702,151.2155359,196.84766543098362,S
12 THE PARAPET,NSW,2068,CASTLECRAG,THE PARAPET,54,-33.80332316,151.21624203,4.024584130039138,N
14 THE PARAPET,NSW,2068,CASTLECRAG,THE PARAPET,53,-33.80351622,151.21614619,193.38120430783061,S
1A LINCOLN AVENUE,NSW,2068,CASTLECRAG,LINCOLN,,-33.79742184,151.21119503,346.05982116945296,N
35 THE RAMPART,NSW,2068,CASTLECRAG,THE RAMPART,88,-33.80390854,151.21377917,212.1083851100453,SW
39 THE RAMPART,NSW,2068,CASTLECRAG,THE RAMPART,90,-33.8036711,151.21352779,212.1084584840332,SW
158 EASTERN VALLEY WAY,NSW,2068,WILLOUGHBY EAST,EASTERN VALLEY,,-33.79853461,151.20993113,165.29224545964632,S
160 EASTERN VALLEY WAY,NSW,2068,WILLOUGHBY EAST,EASTERN VALLEY,,-33.79853461,151.20993113,165.29224545964632,S
1 CHARLES STREET,NSW,2068,CASTLECRAG,CHARLES,149,-33.80190276,151.2147958,61.487404873293414,NE
11 CHARLES STREET,NSW,2068,CASTLECRAG,CHARLES,199,-33.80112274,151.21442328,4.680752886028143,N
12 CHARLES STREET,NSW,2068,CASTLECRAG,CHARLES,B,-33.8012926,151.21388927,242.20009230910514,SW
13 CHARLES STREET,NSW,2068,CASTLECRAG,CHARLES,198,-33.80098365,151.21435906,62.200288140473525,NE
14 CHARLES STREET,NSW,2068,CASTLECRAG,CHARLES,126,-33.80112627,151.21383277,242.2001412388704,SW
15 CHARLES STREET,NSW,2068,CASTLECRAG,CHARLES,197,-33.80085492,151.21430329,62.200323810983,NE
5 THE RAMPART,NSW,2068,CASTLECRAG,THE RAMPART,73,-33.80376282,151.21663147,321.1649976705414,NW
17 SUGARLOAF CRESCENT,NSW,2068,CASTLECRAG,SUGARLOAF,17,-33.79788192,151.21178298,29.134490750495647,NE
19 SUGARLOAF CRESCENT,NSW,2068,CASTLECRAG,SUGARLOAF,3,-33.79806602,151.21200281,16.655142105406767,N
21 SUGARLOAF CRESCENT,NSW,2068,CASTLECRAG,SUGARLOAF,262,-33.79816904,151.21244204,15.773003647929215,N
22 SUGARLOAF CRESCENT,NSW,2068,CASTLECRAG,SUGARLOAF,1,-33.79820681,151.21157419,209.13438408729513,SW
24 SUGARLOAF CRESCENT,NSW,2068,CASTLECRAG,SUGARLOAF,327,-33.79833814,151.21171421,206.77688846656963,SW
25 SUGARLOAF CRESCENT,NSW,2068,CASTLECRAG,SUGARLOAF,B,-33.79820313,151.21294611,16.823277620930718,N
28 SUGARLOAF CRESCENT,NSW,2068,CASTLECRAG,SUGARLOAF,325,-33.79849282,151.21203712,196.51655245761765,S
29 SUGARLOAF CRESCENT,NSW,2068,CASTLECRAG,SUGARLOAF,266,-33.79832867,151.21324092,16.823254202280012,N
36 SUGARLOAF CRESCENT,NSW,2068,CASTLECRAG,SUGARLOAF,321,-33.79875539,151.21258104,195.77289759589553,S
39 SUGARLOAF CRESCENT,NSW,2068,CASTLECRAG,SUGARLOAF,271,-33.79852585,151.21398279,339.73222997291265,N
42 SUGARLOAF CRESCENT,NSW,2068,CASTLECRAG,SUGARLOAF,318,-33.79888367,151.21299896,196.82314646349514,S
47 SUGARLOAF CRESCENT,NSW,2068,CASTLECRAG,SUGARLOAF,275,-33.79804293,151.21374155,207.5234459990305,SW
48 SUGARLOAF CRESCENT,NSW,2068,CASTLECRAG,SUGARLOAF,315,-33.79900654,151.21342015,196.2034281442157,S
7 THE PARAPET,NSW,2068,CASTLECRAG,THE PARAPET,CP,-33.8030321,151.21563823,16.84773622011743,N
8 THE PARAPET,NSW,2068,CASTLECRAG,THE PARAPET,56,-33.80300096,151.21626644,89.5142079729776,E
10 THE POSTERN,NSW,2068,CASTLECRAG,THE POSTERN,1,-33.80414998,151.21241543,11.295949771762873,N
18 CHARLES STREET,NSW,2068,CASTLECRAG,CHARLES,124,-33.80086723,151.21371877,242.20021269062,SW
2A THE HIGH TOR,NSW,2068,CASTLECRAG,THE HIGH TOR,,-33.7988099,151.22816365,176.47477691034817,S
2 THE HIGH TOR,NSW,2068,CASTLECRAG,THE HIGH TOR,9A,-33.79914172,151.22827409,77.1598006036351,E
23 CHARLES STREET,NSW,2068,CASTLECRAG,CHARLES,193,-33.80032182,151.2140492,197.29905334488632,S
24 CHARLES STREET,NSW,2068,CASTLECRAG,CHARLES,121,-33.80048005,151.21354854,243.86029147392992,SW
3 CHARLES STREET,NSW,2068,CASTLECRAG,CHARLES,148,-33.80178872,151.21474547,61.487437103922254,NE
4 CHARLES STREET,NSW,2068,CASTLECRAG,CHARLES,131,-33.80177287,151.21411685,241.48733067306364,SW
5 CHARLES STREET,NSW,2068,CASTLECRAG,CHARLES,147,-33.80167408,151.21469453,184.68072276999274,S
18 THE PARAPET,NSW,2068,CASTLECRAG,THE PARAPET,51,-33.80378461,151.2159172,326.46152924536824,NW
19 THE PARAPET,NSW,2068,CASTLECRAG,THE PARAPET,29,-33.80347306,151.21494339,5.568710331000546,N
29 THE PARAPET,NSW,2068,CASTLECRAG,THE PARAPET,34,-33.80309967,151.21424093,179.52606963766152,S
30 THE PARAPET,NSW,2068,CASTLECRAG,THE PARAPET,45,-33.8039848,151.21490336,4.309897352091184,N
32 THE PARAPET,NSW,2068,CASTLECRAG,THE PARAPET,44,-33.80395405,151.21471439,4.3098988950443955,N
36 THE PARAPET,NSW,2068,CASTLECRAG,THE PARAPET,42,-33.80391282,151.21439546,31.72955782113713,NE
165C EASTERN VALLEY WAY,NSW,2068,MIDDLE COVE,EASTERN VALLEY,,-33.79733574,151.20981141,30.52139578140443,NE
181 EASTERN VALLEY WAY,NSW,2068,MIDDLE COVE,EASTERN VALLEY,11,-33.79638346,151.20936153,0.02627284985907177,N
191 EASTERN VALLEY WAY,NSW,2068,MIDDLE COVE,EASTERN VALLEY,16A,-33.79580287,151.20910485,352.9571210906315,N
186 EASTERN VALLEY WAY,NSW,2068,WILLOUGHBY EAST,EASTERN VALLEY,36,-33.79649641,151.20864787,330.05976152727163,NW
13 GARDEN PLACE,NSW,2068,WILLOUGHBY,GARDEN,,-33.80428367,151.20881404,307.05026125929976,NW
9 GARDEN PLACE,NSW,2068,WILLOUGHBY,GARDEN,,-33.80442254,151.20874253,301.80737815621876,NW
16 GARDEN PLACE,NSW,2068,WILLOUGHBY,GARDEN,,-33.80437501,151.20924861,320.6639688889796,NW
"UNIT 3, 76-80 EDINBURGH ROAD",NSW,2068,WILLOUGHBY,EDINBURGH,,-33.80269539,151.21082754,6.790968141597537,N
"UNIT 4, 76-80 EDINBURGH ROAD",NSW,2068,WILLOUGHBY,EDINBURGH,,-33.80269539,151.21082754,6.790968141597537,N
"UNIT 5, 76-80 EDINBURGH ROAD",NSW,2068,WILLOUGHBY,EDINBURGH,,-33.80269539,151.21082754,6.790968141597537,N
"UNIT 6, 76-80 EDINBURGH ROAD",NSW,2068,WILLOUGHBY,EDINBURGH,,-33.80269539,151.21082754,6.790968141597537,N
76-80 EDINBURGH ROAD,NSW,2068,WILLOUGHBY,EDINBURGH,,-33.80269539,151.21082754,6.790968141597537,N
23 WINDSOR ROAD,NSW,2068,WILLOUGHBY,WINDSOR,,-33.80434884,151.2084678,300.9276638316776,NW
17 WARNERS AVENUE,NSW,2068,WILLOUGHBY,WARNERS,7,-33.80308117,151.2096802,358.5468652890289,N
12 WARNERS AVENUE,NSW,2068,WILLOUGHBY,WARNERS,22,-33.80356272,151.20989106,172.5685454998025,S
10 WARNERS AVENUE,NSW,2068,WILLOUGHBY,WARNERS,23,-33.8035204,151.21008475,172.5685418558072,S
69 EDINBURGH ROAD,NSW,2068,WILLOUGHBY EAST,EDINBURGH,64,-33.8021176,151.21115001,242.98720889396145,SW
45 EDINBURGH ROAD,NSW,2068,WILLOUGHBY EAST,EDINBURGH,2,-33.80217969,151.20863637,2.7629278329378866,N
"UNIT 3, 9 WARNERS AVENUE",NSW,2068,WILLOUGHBY,WARNERS,,-33.80303115,151.21047165,2.1525051232786323,N
"UNIT 2, 16-18 WARNERS AVENUE",NSW,2068,WILLOUGHBY,WARNERS,,-33.80363417,151.20945534,182.7628808960868,S
"UNIT 7, 16-18 WARNERS AVENUE",NSW,2068,WILLOUGHBY,WARNERS,,-33.80363417,151.20945534,182.7628808960868,S
"UNIT 4, 9 WARNERS AVENUE",NSW,2068,WILLOUGHBY,WARNERS,,-33.80303115,151.21047165,2.1525051232786323,N
"UNIT 5, 16-18 WARNERS AVENUE",NSW,2068,WILLOUGHBY,WARNERS,,-33.80363417,151.20945534,182.7628808960868,S
143 EASTERN VALLEY WAY,NSW,2068,CASTLECRAG,EASTERN VALLEY,,-33.79914873,151.21053807,159.9732124844317,S
317 EDINBURGH ROAD,NSW,2068,CASTLECRAG,EDINBURGH,6,-33.79936878,151.22060154,174.6440166112699,S
1 CHEYNE WALK,NSW,2068,CASTLECRAG,CHEYNE,2,-33.8007235,151.22966421,223.06720409410303,SW
13 CHEYNE WALK,NSW,2068,CASTLECRAG,CHEYNE,12B,-33.801933,151.23000824,350.5896294896042,N
15 CHEYNE WALK,NSW,2068,CASTLECRAG,CHEYNE,13,-33.80190904,151.22969171,12.616007135992609,N
17 CHEYNE WALK,NSW,2068,CASTLECRAG,CHEYNE,14,-33.80184506,151.22943639,5.238102261890153,N
19 CHEYNE WALK,NSW,2068,CASTLECRAG,CHEYNE,15,-33.8017673,151.22915246,5.238107008256577,N
2 CHEYNE WALK,NSW,2068,CASTLECRAG,CHEYNE,B,-33.80031689,151.22970239,30.946203034745405,NE
21 CHEYNE WALK,NSW,2068,CASTLECRAG,CHEYNE,16,-33.80177609,151.2289201,5.2381064648238835,N
31 CHEYNE WALK,NSW,2068,CASTLECRAG,CHEYNE,1,-33.80168895,151.22797516,12.86344124961439,N
4 CHEYNE WALK,NSW,2068,CASTLECRAG,CHEYNE,X,-33.80036504,151.2299647,43.06736866097435,NE
6 CHEYNE WALK,NSW,2068,CASTLECRAG,CHEYNE,Y,-33.80052597,151.23006445,28.778663747096598,NE
8 CHEYNE WALK,NSW,2068,CASTLECRAG,CHEYNE,E,-33.80068197,151.23019952,21.462739064150327,N
14 SUNNYSIDE CRESCENT,NSW,2068,CASTLECRAG,SUNNYSIDE,190,-33.80070367,151.21479973,197.2989799555335,S
15 SUNNYSIDE CRESCENT,NSW,2068,CASTLECRAG,SUNNYSIDE,3478,-33.79855197,151.21139614,15.268346742549067,N
17 SUNNYSIDE CRESCENT,NSW,2068,CASTLECRAG,SUNNYSIDE,349,-33.79872946,151.21164795,26.60963819979371,NE
33 SUNNYSIDE CRESCENT,NSW,2068,CASTLECRAG,SUNNYSIDE,356,-33.7992676,151.21262657,32.892564597872116,NE
34 SUNNYSIDE CRESCENT,NSW,2068,CASTLECRAG,SUNNYSIDE,180,-33.80081298,151.21622159,165.65128733102722,S
36 SUNNYSIDE CRESCENT,NSW,2068,CASTLECRAG,SUNNYSIDE,179,-33.80075078,151.21635688,153.6247986024365,SE
42 SUNNYSIDE CRESCENT,NSW,2068,CASTLECRAG,SUNNYSIDE,176,-33.80049183,151.21676029,148.0230836207411,SE
44 SUNNYSIDE CRESCENT,NSW,2068,CASTLECRAG,SUNNYSIDE,175,-33.80039815,151.21688778,148.02039393435587,SE
45 SUNNYSIDE CRESCENT,NSW,2068,CASTLECRAG,SUNNYSIDE,362,-33.79963029,151.21336203,6.534406634742883,N
47 SUNNYSIDE CRESCENT,NSW,2068,CASTLECRAG,SUNNYSIDE,363,-33.79969174,151.21349207,7.758544172156097,N
48A SUNNYSIDE CRESCENT,NSW,2068,CASTLECRAG,SUNNYSIDE,172,-33.80011876,151.21726731,150.37885494114218,SE
48 SUNNYSIDE CRESCENT,NSW,2068,CASTLECRAG,SUNNYSIDE,173,-33.80021114,151.21713951,150.37888167060527,SE
5 SUNNYSIDE CRESCENT,NSW,2068,CASTLECRAG,SUNNYSIDE,342,-33.79871546,151.21054404,339.27930036265616,N
51 SUNNYSIDE CRESCENT,NSW,2068,CASTLECRAG,SUNNYSIDE,365,-33.79973274,151.21380093,14.456551241301275,N
4 THE BARTIZAN,NSW,2068,CASTLECRAG,THE BARTIZAN,388,-33.80100281,151.22116452,286.62047798188854,W
6 THE BARTIZAN,NSW,2068,CASTLECRAG,THE BARTIZAN,386,-33.80080391,151.22121944,300.19751075797365,NW
1 THE BASTION,NSW,2068,CASTLECRAG,THE BASTION,293,-33.80387357,151.21983938,33.029613556233805,NE
12 THE BASTION,NSW,2068,CASTLECRAG,THE BASTION,178,-33.80360276,151.21854059,194.95144464064794,S
14 THE BASTION,NSW,2068,CASTLECRAG,THE BASTION,177,-33.80354546,151.21835544,3.0199303637060475,N
15 THE BASTION,NSW,2068,CASTLECRAG,THE BASTION,300,-33.80310212,151.21873425,14.951531230001684,N
16 THE BASTION,NSW,2068,CASTLECRAG,THE BASTION,176,-33.80348782,151.21816885,193.52671928567253,S
77 SUNNYSIDE CRESCENT,NSW,2068,CASTLECRAG,SUNNYSIDE,9,-33.800398,151.21605223,345.65121839054177,N
79 SUNNYSIDE CRESCENT,NSW,2068,CASTLECRAG,SUNNYSIDE,10,-33.80022017,151.21613443,332.9656299451876,NW
8A SUNNYSIDE CRESCENT,NSW,2068,CASTLECRAG,SUNNYSIDE,1,-33.80017123,151.21349475,187.75850084951816,S
8 SUNNYSIDE CRESCENT,NSW,2068,CASTLECRAG,SUNNYSIDE,2,-33.80015468,151.21321932,186.53436667826455,S
9 SUNNYSIDE CRESCENT,NSW,2068,CASTLECRAG,SUNNYSIDE,344,-33.79856797,151.21082964,339.7388244038227,N
97 SUNNYSIDE CRESCENT,NSW,2068,CASTLECRAG,SUNNYSIDE,21,-33.79926565,151.21817211,32.55348043191894,NE
9 MOROTAI CRESCENT,NSW,2068,CASTLECRAG,MOROTAI,61,-33.80458159,151.21067631,336.6125967658455,NW
35 THE SCARP,NSW,2068,CASTLECRAG,THE SCARP,3,-33.80165399,151.22535009,212.53765462533482,SW
16 RAEBURN AVENUE,NSW,2068,CASTLECRAG,RAEBURN,43,-33.80100954,151.21173634,242.47368935794498,SW
2 RAEBURN AVENUE,NSW,2068,CASTLECRAG,RAEBURN,50,-33.80191583,151.2121338,359.08095069311156,N
20 RAEBURN AVENUE,NSW,2068,CASTLECRAG,RAEBURN,41,-33.80075311,151.21162376,179.3836165715636,S
21 RAEBURN AVENUE,NSW,2068,CASTLECRAG,RAEBURN,66,-33.80060379,151.21215925,359.5233762126635,N
22 RAEBURN AVENUE,NSW,2068,CASTLECRAG,RAEBURN,40,-33.80060711,151.21155968,359.383615526144,N
24 RAEBURN AVENUE,NSW,2068,CASTLECRAG,RAEBURN,39,-33.80047941,151.2115039,359.3836146008005,N
26 RAEBURN AVENUE,NSW,2068,CASTLECRAG,RAEBURN,38,-33.80035004,151.21144748,242.9773050761052,SW
3 RAEBURN AVENUE,NSW,2068,CASTLECRAG,RAEBURN,57,-33.80178358,151.21267565,62.47496684310571,NE
31 RAEBURN AVENUE,NSW,2068,CASTLECRAG,RAEBURN,71,-33.79995887,151.21187576,62.97752222468541,NE
38 RAEBURN AVENUE,NSW,2068,CASTLECRAG,RAEBURN,32,-33.79957485,151.21110864,242.97751318531215,SW
39 RAEBURN AVENUE,NSW,2068,CASTLECRAG,RAEBURN,75,-33.79944321,151.21164893,62.97766038974769,NE
4 RAEBURN AVENUE,NSW,2068,CASTLECRAG,RAEBURN,49,-33.80178631,151.21207682,359.0809493101478,N
41 RAEBURN AVENUE,NSW,2068,CASTLECRAG,RAEBURN,76,-33.79931492,151.21159255,62.97769477340649,NE
42 RAEBURN AVENUE,NSW,2068,CASTLECRAG,RAEBURN,30,-33.79931736,151.21099673,242.97758242851728,SW
43 RAEBURN AVENUE,NSW,2068,CASTLECRAG,RAEBURN,A,-33.79918469,151.21156569,206.60950370871618,SW
44 RAEBURN AVENUE,NSW,2068,CASTLECRAG,RAEBURN,29,-33.79916885,151.21094092,242.97762400237357,SW
6 RAEBURN AVENUE,NSW,2068,CASTLECRAG,RAEBURN,48,-33.8016566,151.21201978,242.47351241317148,SW
7 RAEBURN AVENUE,NSW,2068,CASTLECRAG,RAEBURN,59,-33.80152524,151.21256268,62.475037521075514,NE
8 RAEBURN AVENUE,NSW,2068,CASTLECRAG,RAEBURN,47,-33.80152763,151.2119636,242.47354774090422,SW
11 WARNERS AVENUE,NSW,2068,WILLOUGHBY,WARNERS,18,-33.80304429,151.21017916,352.56850064391267,N
15 WARNERS AVENUE,NSW,2068,WILLOUGHBY,WARNERS,20,-33.80307311,151.20984495,352.5685031029892,N
198 EDINBURGH ROAD,NSW,2068,CASTLECRAG,EDINBURGH,A,-33.79958425,151.22116911,282.70583759580666,W
"UNIT 6, 22 WARNERS AVENUE",NSW,2068,WILLOUGHBY,WARNERS,,-33.80359566,151.2091153,182.76288213497767,S
"UNIT 5, 22 WARNERS AVENUE",NSW,2068,WILLOUGHBY,WARNERS,,-33.80359566,151.2091153,182.76288213497767,S
"UNIT 8, 22 WARNERS AVENUE",NSW,2068,WILLOUGHBY,WARNERS,,-33.80359566,151.2091153,182.76288213497767,S
"UNIT 7, 22 WARNERS AVENUE",NSW,2068,WILLOUGHBY,WARNERS,,-33.80359566,151.2091153,182.76288213497767,S
4 THE BULWARK,NSW,2068,CASTLECRAG,THE BULWARK,,-33.80037841,151.22576439,60.794851617536516,NE
185 EASTERN VALLEY WAY,NSW,2068,MIDDLE COVE,EASTERN VALLEY,13,-33.79615086,151.20925812,356.44375798739645,N
"UNIT 2, 91 EASTERN VALLEY WAY",NSW,2068,CASTLECRAG,EASTERN VALLEY,,-33.80373092,151.21167839,49.9148553050242,NE
37A LINDEN WAY,NSW,2068,CASTLECRAG,LINDEN,,-33.79930509,151.22722301,67.24065443187497,NE
89-93 SUNNYSIDE CRESCENT,NSW,2068,CASTLECRAG,SUNNYSIDE,,-33.79974177,151.21690446,135.68734635821573,SE
74 EASTERN VALLEY WAY,NSW,2068,WILLOUGHBY,EASTERN VALLEY,4,-33.80433966,151.2089509,307.05030115475085,NW
72 EASTERN VALLEY WAY,NSW,2068,WILLOUGHBY,EASTERN VALLEY,5,-33.80433966,151.2089509,307.05030115475085,NW
82 EASTERN VALLEY WAY,NSW,2068,WILLOUGHBY,EASTERN VALLEY,35,-33.80404048,151.20962247,333.8930762016553,NW
67 SUGARLOAF CRESCENT,NSW,2068,CASTLECRAG,SUGARLOAF,1,-33.79680879,151.21214939,162.60136474979103,S
7 SUGARLOAF CRESCENT,NSW,2068,CASTLECRAG,SUGARLOAF,236,-33.79758358,151.21063553,345.2920853749753,N
70 SUGARLOAF CRESCENT,NSW,2068,CASTLECRAG,SUGARLOAF,304,-33.79860995,151.21510318,96.19733975647998,E
71 SUGARLOAF CRESCENT,NSW,2068,CASTLECRAG,SUGARLOAF,3,-33.79641132,151.21189805,342.60128479733106,N
75 SUGARLOAF CRESCENT,NSW,2068,CASTLECRAG,SUGARLOAF,5,-33.79616662,151.211359,266.0551215731788,W
81 SUGARLOAF CRESCENT,NSW,2068,CASTLECRAG,SUGARLOAF,8,-33.79561318,151.21115715,192.92509508651372,S
83A SUGARLOAF CRESCENT,NSW,2068,CASTLECRAG,SUGARLOAF,2,-33.79558575,151.21132754,19.624188891917168,N
83 SUGARLOAF CRESCENT,NSW,2068,CASTLECRAG,SUGARLOAF,1,-33.79550705,151.21061158,285.1277835409432,W
84 SUGARLOAF CRESCENT,NSW,2068,CASTLECRAG,SUGARLOAF,295,-33.79756072,151.21476123,47.48379266087565,NE
90 SUGARLOAF CRESCENT,NSW,2068,CASTLECRAG,SUGARLOAF,294,-33.79746191,151.21428851,27.523630086476963,NE
96 SUGARLOAF CRESCENT,NSW,2068,CASTLECRAG,SUGARLOAF,291,-33.7972389,151.21389561,28.178684372907174,NE
3 EDITH STREET,NSW,2068,CASTLECRAG,EDITH,208,-33.80131506,151.21592551,4.680742409749381,N
"UNIT 7, 21-23 WARNERS AVENUE",NSW,2068,WILLOUGHBY,WARNERS,,-33.80306684,151.20935945,2.7628992019559773,N
"UNIT 8, 21-23 WARNERS AVENUE",NSW,2068,WILLOUGHBY,WARNERS,,-33.80306684,151.20935945,2.7628992019559773,N
22 WARNERS AVENUE,NSW,2068,WILLOUGHBY,WARNERS,16,-33.80359566,151.2091153,182.76288213497767,S
"UNIT 6, 21-23 WARNERS AVENUE",NSW,2068,WILLOUGHBY,WARNERS,,-33.80306684,151.20935945,2.7628992019559773,N
"UNIT 10, 21-23 WARNERS AVENUE",NSW,2068,WILLOUGHBY,WARNERS,,-33.80306684,151.20935945,2.7628992019559773,N
"UNIT 11, 21-23 WARNERS AVENUE",NSW,2068,WILLOUGHBY,WARNERS,,-33.80306684,151.20935945,2.7628992019559773,N
"UNIT 12, 21-23 WARNERS AVENUE",NSW,2068,WILLOUGHBY,WARNERS,,-33.80306684,151.20935945,2.7628992019559773,N
"UNIT 14, 21-23 WARNERS AVENUE",NSW,2068,WILLOUGHBY,WARNERS,,-33.80306684,151.20935945,2.7628992019559773,N
"UNIT 15, 21-23 WARNERS AVENUE",NSW,2068,WILLOUGHBY,WARNERS,,-33.80306684,151.20935945,2.7628992019559773,N
"UNIT 16, 21-23 WARNERS AVENUE",NSW,2068,WILLOUGHBY,WARNERS,,-33.80306684,151.20935945,2.7628992019559773,N
"UNIT 1, 21-23 WARNERS AVENUE",NSW,2068,WILLOUGHBY,WARNERS,,-33.80306684,151.20935945,2.7628992019559773,N
18 GARDEN PLACE,NSW,2068,WILLOUGHBY,GARDEN,,-33.80432892,151.20928364,321.4078111528751,NW
5 LINCOLN AVENUE,NSW,2068,CASTLECRAG,LINCOLN,3,-33.79733513,151.2115196,240.5320026906964,SW
9 LINCOLN AVENUE,NSW,2068,CASTLECRAG,LINCOLN,5,-33.79703886,151.21198008,160.69179462438157,S
10 ROCKLEY STREET,NSW,2068,CASTLECRAG,ROCKLEY,3,-33.80487012,151.22045606,120.08013533644507,SE
12 ROCKLEY STREET,NSW,2068,CASTLECRAG,ROCKLEY,1,-33.80430225,151.2203998,105.2468047682386,E
4 ROCKLEY STREET,NSW,2068,CASTLECRAG,ROCKLEY,6,-33.80476815,151.2210316,334.59876069676005,NW
5 ROCKLEY STREET,NSW,2068,CASTLECRAG,ROCKLEY,358,-33.80372857,151.22255922,74.93984551377733,E
1 LINCOLN AVENUE,NSW,2068,CASTLECRAG,LINCOLN,1,-33.79741386,151.21120358,346.0598198979321,N
10 LINCOLN AVENUE,NSW,2068,CASTLECRAG,LINCOLN,2,-33.79792235,151.2124683,178.3496197978788,S
11 LINCOLN AVENUE,NSW,2068,CASTLECRAG,LINCOLN,6,-33.79713846,151.21218517,14.78424867506763,N
12 LINCOLN AVENUE,NSW,2068,CASTLECRAG,LINCOLN,C,-33.797955,151.21277537,134.86384516974996,SE
13 LINCOLN AVENUE,NSW,2068,CASTLECRAG,LINCOLN,7,-33.79726113,151.2123132,20.482438096948375,N
19 LINCOLN AVENUE,NSW,2068,CASTLECRAG,LINCOLN,10,-33.79760708,151.21281899,73.65027533495666,E
3 LINCOLN AVENUE,NSW,2068,CASTLECRAG,LINCOLN,2,-33.79736808,151.21135933,186.94433884760215,S
4 LINCOLN AVENUE,NSW,2068,CASTLECRAG,LINCOLN,15,-33.79767958,151.21199061,167.6287196284517,S
8 ROCKLEY STREET,NSW,2068,CASTLECRAG,ROCKLEY,41,-33.80437164,151.2207391,186.53322695002035,S
60 SUGARLOAF CRESCENT,NSW,2068,CASTLECRAG,SUGARLOAF,308,-33.79896491,151.21462518,142.28682417734353,SE
65 SUGARLOAF CRESCENT,NSW,2068,CASTLECRAG,SUGARLOAF,284,-33.79697362,151.21236538,219.69967090404685,SW
57 FOURTH AVENUE,NSW,2068,WILLOUGHBY EAST,FOURTH,26,-33.79866566,151.20908663,227.83381549964543,SW
54 FOURTH AVENUE,NSW,2068,WILLOUGHBY EAST,FOURTH,37,-33.7991789,151.20856402,224.2577951072986,SW
51 FOURTH AVENUE,NSW,2068,WILLOUGHBY EAST,FOURTH,22,-33.79921829,151.20933653,263.0056663641752,W
98 EASTERN VALLEY WAY,NSW,2068,WILLOUGHBY,EASTERN VALLEY,12,-33.80312246,151.21121396,6.790934362823035,N
96 EASTERN VALLEY WAY,NSW,2068,WILLOUGHBY,EASTERN VALLEY,28,-33.80361122,151.21096426,331.9535107091065,NW
92 EASTERN VALLEY WAY,NSW,2068,WILLOUGHBY,EASTERN VALLEY,30,-33.80374492,151.2105026,342.0502418682679,N
88 EASTERN VALLEY WAY,NSW,2068,WILLOUGHBY,EASTERN VALLEY,32,-33.80384713,151.21016594,342.050261675446,N
3A CHEYNE WALK,NSW,2068,CASTLECRAG,CHEYNE,7,-33.80094302,151.22976403,49.8262658034611,NE
3 CHEYNE WALK,NSW,2068,CASTLECRAG,CHEYNE,9,-33.80094614,151.23007466,201.46267419245322,S
7 THE BASTION,NSW,2068,CASTLECRAG,THE BASTION,296,-33.80338767,151.21952141,18.710114771917976,N
1 THE BATTLEMENT,NSW,2068,CASTLECRAG,THE BATTLEMENT,306,-33.80282856,151.21746347,19.29608971416554,N
11 THE BATTLEMENT,NSW,2068,CASTLECRAG,THE BATTLEMENT,311,-33.80214301,151.21802738,138.75351653469247,SE
12 THE BATTLEMENT,NSW,2068,CASTLECRAG,THE BATTLEMENT,129,-33.80157834,151.21779041,318.7532799488297,NW
15 THE BATTLEMENT,NSW,2068,CASTLECRAG,THE BATTLEMENT,313,-33.80188421,151.21827182,209.98931398424762,SW
14 THE BULWARK,NSW,2068,CASTLECRAG,THE BULWARK,20,-33.80042326,151.22541941,256.88506806768845,W
16 THE BULWARK,NSW,2068,CASTLECRAG,THE BULWARK,19,-33.8001714,151.22534686,247.24560917528038,SW
21 THE BULWARK,NSW,2068,CASTLECRAG,THE BULWARK,443,-33.79974822,151.22308081,354.5584292678673,N
23 THE BULWARK,NSW,2068,CASTLECRAG,THE BULWARK,442,-33.7997888,151.2228876,349.4202477542352,N
25 THE BULWARK,NSW,2068,CASTLECRAG,THE BULWARK,441,-33.79981825,151.22269158,346.4298773801577,N
103 EDINBURGH ROAD,NSW,2068,CASTLECRAG,EDINBURGH,55,-33.80213659,151.2133792,240.63311916010133,SW
105 EDINBURGH ROAD,NSW,2068,CASTLECRAG,EDINBURGH,99,-33.8021315,151.21372463,60.633180910004654,NE
4 SUNNYSIDE CRESCENT,NSW,2068,CASTLECRAG,SUNNYSIDE,4,-33.80000802,151.21277985,64.4427611925436,NE
41 SUNNYSIDE CRESCENT,NSW,2068,CASTLECRAG,SUNNYSIDE,360,-33.79950789,151.21311957,32.47513962566139,NE
115 EDINBURGH ROAD,NSW,2068,CASTLECRAG,EDINBURGH,133,-33.80212405,151.21473049,61.48731325265739,NE
126A EDINBURGH ROAD,NSW,2068,CASTLECRAG,EDINBURGH,12,-33.80260432,151.21387781,179.56602031925675,S
128 EDINBURGH ROAD,NSW,2068,CASTLECRAG,EDINBURGH,13,-33.80268709,151.21412381,359.52606735360644,N
134 EDINBURGH ROAD,NSW,2068,CASTLECRAG,EDINBURGH,16,-33.8026817,151.2147141,0.36022535173387316,N
5 GARDEN PLACE,NSW,2068,WILLOUGHBY,GARDEN,,-33.80456386,151.20870248,300.9277833607133,NW
23 GARDEN PLACE,NSW,2068,WILLOUGHBY,GARDEN,,-33.80392948,151.20904706,182.7628713647311,S
2 GARDEN PLACE,NSW,2068,WILLOUGHBY,GARDEN,,-33.80482122,151.20906771,285.72602883809043,W
56 SUNNYSIDE CRESCENT,NSW,2068,CASTLECRAG,SUNNYSIDE,168,-33.7996818,151.21784359,157.60633758029277,S
57 SUNNYSIDE CRESCENT,NSW,2068,CASTLECRAG,SUNNYSIDE,368,-33.79997962,151.21424458,17.299121737224848,N
58 SUNNYSIDE CRESCENT,NSW,2068,CASTLECRAG,SUNNYSIDE,167,-33.79982906,151.21799559,217.7282684767183,SW
61 SUNNYSIDE CRESCENT,NSW,2068,CASTLECRAG,SUNNYSIDE,C,-33.80007656,151.21458932,17.29910357724841,N
22 THE BATTLEMENT,NSW,2068,CASTLECRAG,THE BATTLEMENT,124,-33.80093797,151.21841374,318.4252006086533,NW
23 THE BATTLEMENT,NSW,2068,CASTLECRAG,THE BATTLEMENT,317,-33.80135736,151.21874789,318.88846626730117,NW
24 THE BATTLEMENT,NSW,2068,CASTLECRAG,THE BATTLEMENT,123,-33.80080842,151.21853576,318.85404123524637,NW
25 THE BATTLEMENT,NSW,2068,CASTLECRAG,THE BATTLEMENT,318,-33.80122868,151.218871,318.8884236278971,NW
28 THE BATTLEMENT,NSW,2068,CASTLECRAG,THE BATTLEMENT,121,-33.80053244,151.21878839,318.85394906853344,NW
34 THE BATTLEMENT,NSW,2068,CASTLECRAG,THE BATTLEMENT,118,-33.80014666,151.21925284,347.4039887328035,N
36 THE BATTLEMENT,NSW,2068,CASTLECRAG,THE BATTLEMENT,117,-33.80016017,151.21945507,356.26614701962956,N
37 THE BATTLEMENT,NSW,2068,CASTLECRAG,THE BATTLEMENT,324,-33.80068941,151.2197744,194.79942851701273,S
5 WARNERS AVENUE,NSW,2068,WILLOUGHBY,WARNERS,15,-33.80305326,151.21072747,6.790939806611883,N
3 COVELEE CIRCUIT,NSW,2068,MIDDLE COVE,COVELEE,44,-33.79726407,151.21032403,345.29203070394914,N
265 EDINBURGH ROAD,NSW,2068,CASTLECRAG,EDINBURGH,A,-33.79852408,151.22546492,354.6118177786114,N
273 EDINBURGH ROAD,NSW,2068,CASTLECRAG,EDINBURGH,A,-33.79843423,151.22595868,354.6118121421948,N
276 EDINBURGH ROAD,NSW,2068,CASTLECRAG,EDINBURGH,132,-33.79872279,151.22868177,126.21867533074513,SE
278A EDINBURGH ROAD,NSW,2068,CASTLECRAG,EDINBURGH,3,-33.79835255,151.22868197,56.4336165185486,NE
280 EDINBURGH ROAD,NSW,2068,CASTLECRAG,EDINBURGH,A,-33.79833749,151.22831319,352.49338689313083,N
282 EDINBURGH ROAD,NSW,2068,CASTLECRAG,EDINBURGH,A,-33.7981437,151.22832202,104.25035446864543,E
291 EDINBURGH ROAD,NSW,2068,CASTLECRAG,EDINBURGH,6,-33.79831865,151.22673523,354.5051164298732,N
29 WARNERS AVENUE,NSW,2068,WILLOUGHBY,WARNERS,1,-33.80303813,151.20870925,2.7629001306890677,N
4 ROBERT STREET,NSW,2068,WILLOUGHBY EAST,ROBERT,4,-33.79791141,151.20920454,214.63412771486,SW
73-77 EDINBURGH ROAD,NSW,2068,CASTLECRAG,EDINBURGH,,-33.8021763,151.21174029,179.08095349904144,S
70-72 THE BULWARK,NSW,2068,CASTLECRAG,THE BULWARK,,-33.80205962,151.22034027,190.6668026145805,S
117 EDINBURGH ROAD,NSW,2068,CASTLECRAG,EDINBURGH,1,-33.80212317,151.21489641,0.5119296235715984,N
6B THE BATTLEMENT,NSW,2068,CASTLECRAG,THE BATTLEMENT,,-33.80197188,151.21743027,318.7534113715859,NW
31 LINDEN WAY,NSW,2068,CASTLECRAG,LINDEN,,-33.80016377,151.22713873,173.35705898068665,S
11 RAEBURN AVENUE,NSW,2068,CASTLECRAG,RAEBURN,61,-33.80126643,151.21244928,62.47372970384584,NE
121 EDINBURGH ROAD,NSW,2068,CASTLECRAG,EDINBURGH,,-33.80190076,151.21552926,326.3797585409704,NW
81 SUNNYSIDE CRESCENT,NSW,2068,CASTLECRAG,SUNNYSIDE,,-33.80018016,151.21625182,233.55776700856637,SW
120 EDINBURGH ROAD,NSW,2068,CASTLECRAG,EDINBURGH,1,-33.80268171,151.21317198,180.15331530020194,S
31 GARDEN PLACE,NSW,2068,WILLOUGHBY,GARDEN,,-33.80399405,151.20940846,326.4105439205302,NW
5 THE BASTION,NSW,2068,CASTLECRAG,THE BASTION,,-33.80333646,151.21851832,194.95149043595384,S
124 EDINBURGH ROAD,NSW,2068,CASTLECRAG,EDINBURGH,,-33.79936878,151.22060154,174.6440166112699,S
122 EDINBURGH ROAD,NSW,2068,CASTLECRAG,EDINBURGH,,-33.79936878,151.22060154,174.6440166112699,S
41 MINIMBAH ROAD,NSW,2063,NORTHBRIDGE,MINIMBAH,1,-33.8052378,151.22530767,115.60470221205998,SE
186 EDINBURGH ROAD,NSW,2068,CASTLECRAG,EDINBURGH,,-33.79936878,151.22060154,174.6440166112699,S
19-23 WARNERS AVENUE,NSW,2068,WILLOUGHBY,WARNERS,,-33.80306684,151.20935945,2.7628992019559773,N
90 EASTERN VALLEY WAY,NSW,2068,WILLOUGHBY,EASTERN VALLEY,31,-33.80379299,151.21033256,342.0502511401592,N
43 EASTERN VALLEY WAY,NSW,2063,NORTHBRIDGE,EASTERN VALLEY,83,-33.80583778,151.20937661,180.22416788678447,S
150 EDINBURGH ROAD,NSW,2068,CASTLECRAG,EDINBURGH,1,-33.80182205,151.21704578,49.32738143453877,NE
153 EDINBURGH ROAD,NSW,2068,CASTLECRAG,EDINBURGH,160,-33.80055512,151.21736726,358.962233108293,N
2 THE BASTION,NSW,2068,CASTLECRAG,THE BASTION,183,-33.80400021,151.21940794,359.3549929077845,N
20 THE BASTION,NSW,2068,CASTLECRAG,THE BASTION,174,-33.803377,151.21780762,194.36553202917904,S
21 THE BASTION,NSW,2068,CASTLECRAG,THE BASTION,303,-33.80295015,151.21812495,305.6555589076496,NW
288 EDINBURGH ROAD,NSW,2068,CASTLECRAG,EDINBURGH,A,-33.79753623,151.22846577,144.02813759616322,SE
1 THE BARBICAN,NSW,2068,CASTLECRAG,THE BARBICAN,360,-33.80393069,151.22135605,98.83162580724324,E
11 THE BARBICAN,NSW,2068,CASTLECRAG,THE BARBICAN,363,-33.80324155,151.22074868,340.6091360659591,N
5 THE BARBICAN,NSW,2068,CASTLECRAG,THE BARBICAN,2,-33.80361622,151.22136481,62.543369399841744,NE
5 RUTLAND AVENUE,NSW,2068,CASTLECRAG,RUTLAND,106,-33.80164645,151.21363892,60.633344155959136,NE
7 RUTLAND AVENUE,NSW,2068,CASTLECRAG,RUTLAND,107,-33.80151672,151.2135816,60.63338185683229,NE
8 RUTLAND AVENUE,NSW,2068,CASTLECRAG,RUTLAND,95,-33.80152229,151.21298296,241.6122293682496,SW
9 RUTLAND AVENUE,NSW,2068,CASTLECRAG,RUTLAND,108,-33.8013876,151.2135251,60.63341947158325,NE
3 WARNERS AVENUE,NSW,2068,WILLOUGHBY,WARNERS,14,-33.80306191,151.2108918,6.790939133656603,N
353 EDINBURGH ROAD,NSW,2068,CASTLECRAG,EDINBURGH,11,-33.79544716,151.22907449,283.8517907248797,W
355 EDINBURGH ROAD,NSW,2068,CASTLECRAG,EDINBURGH,10,-33.79533045,151.22910123,284.1694194051272,W
369 EDINBURGH ROAD,NSW,2068,CASTLECRAG,EDINBURGH,D,-33.79509594,151.22980321,72.61885830854504,E
79 EDINBURGH ROAD,NSW,2068,CASTLECRAG,EDINBURGH,8,-33.80217793,151.21192084,179.08095351256125,S
89 EDINBURGH ROAD,NSW,2068,CASTLECRAG,EDINBURGH,3,-33.80217299,151.2122768,179.08095346172584,S
95 EDINBURGH ROAD,NSW,2068,CASTLECRAG,EDINBURGH,51,-33.80213813,151.21270704,62.48983820774101,NE
333 EDINBURGH ROAD,NSW,2068,CASTLECRAG,EDINBURGH,8,-33.79634387,151.22873042,319.82651384546955,NW
335 EDINBURGH ROAD,NSW,2068,CASTLECRAG,EDINBURGH,5,-33.79615352,151.22869003,319.8264376533087,NW
341 EDINBURGH ROAD,NSW,2068,CASTLECRAG,EDINBURGH,12,-33.79583488,151.22901419,268.01265930924285,W
345 EDINBURGH ROAD,NSW,2068,CASTLECRAG,EDINBURGH,2,-33.79554608,151.22947697,103.85191248683196,E
36 LINDEN WAY,NSW,2068,CASTLECRAG,LINDEN,70,-33.80116832,151.22813015,242.90717558795728,SW
39 LINDEN WAY,NSW,2068,CASTLECRAG,LINDEN,19,-33.79912657,151.22713592,50.04029542422663,NE
40 LINDEN WAY,NSW,2068,CASTLECRAG,LINDEN,71,-33.8008804,151.22807562,189.36410933268502,S
48 LINDEN WAY,NSW,2068,CASTLECRAG,LINDEN,C,-33.80120529,151.22718278,194.4986771529687,S
"UNIT 3, 16-18 WARNERS AVENUE",NSW,2068,WILLOUGHBY,WARNERS,,-33.80363417,151.20945534,182.7628808960868,S
"UNIT 4, 16-18 WARNERS AVENUE",NSW,2068,WILLOUGHBY,WARNERS,,-33.80363417,151.20945534,182.7628808960868,S
"UNIT 5, 9 WARNERS AVENUE",NSW,2068,WILLOUGHBY,WARNERS,,-33.80303115,151.21047165,2.1525051232786323,N
"UNIT 6, 16-18 WARNERS AVENUE",NSW,2068,WILLOUGHBY,WARNERS,,-33.80363417,151.20945534,182.7628808960868,S
"UNIT 8, 16-18 WARNERS AVENUE",NSW,2068,WILLOUGHBY,WARNERS,,-33.80363417,151.20945534,182.7628808960868,S
349 EDINBURGH ROAD,NSW,2068,CASTLECRAG,EDINBURGH,13,-33.7956688,151.22899719,285.5747102057171,W
138 EDINBURGH ROAD,NSW,2068,CASTLECRAG,EDINBURGH,2,-33.80267868,151.21504412,0.8929950333023378,N
"SHOP 26, 100 EDINBURGH ROAD",NSW,2068,CASTLECRAG,EDINBURGH,,-33.80273363,151.21223654,216.70260948133813,SW
2A CHEYNE WALK,NSW,2068,CASTLECRAG,CHEYNE,,-33.80032043,151.22971316,30.946202136024095,NE
"UNIT 2, 81 THE BULWARK",NSW,2068,CASTLECRAG,THE BULWARK,,-33.80130123,151.21925385,139.39855157926652,SE
"SHOP 16, 100 EDINBURGH ROAD",NSW,2068,CASTLECRAG,EDINBURGH,,-33.80273363,151.21223654,216.70260948133813,SW
"SHOP 18, 100 EDINBURGH ROAD",NSW,2068,CASTLECRAG,EDINBURGH,,-33.80273363,151.21223654,216.70260948133813,SW
"SHOP 19, 100 EDINBURGH ROAD",NSW,2068,CASTLECRAG,EDINBURGH,,-33.80273363,151.21223654,216.70260948133813,SW
"SHOP 22, 100 EDINBURGH ROAD",NSW,2068,CASTLECRAG,EDINBURGH,,-33.80273363,151.21223654,216.70260948133813,SW
116 EDINBURGH ROAD,NSW,2068,CASTLECRAG,EDINBURGH,,-33.80269746,151.21283539,33.99895730693664,NE
"SHOP 1, 118 EDINBURGH ROAD",NSW,2068,CASTLECRAG,EDINBURGH,,-33.80269763,151.21293253,33.998960603343704,NE
"SHOP 2, 118 EDINBURGH ROAD",NSW,2068,CASTLECRAG,EDINBURGH,,-33.80269763,151.21293253,33.998960603343704,NE
"SHOP 3A, 118 EDINBURGH ROAD",NSW,2068,CASTLECRAG,EDINBURGH,,-33.80269763,151.21293253,33.998960603343704,NE
"SHOP 3, 118 EDINBURGH ROAD",NSW,2068,CASTLECRAG,EDINBURGH,,-33.80269763,151.21293253,33.998960603343704,NE
"SHOP 4, 118 EDINBURGH ROAD",NSW,2068,CASTLECRAG,EDINBURGH,,-33.80269763,151.21293253,33.998960603343704,NE
"SHOP 5, 118 EDINBURGH ROAD",NSW,2068,CASTLECRAG,EDINBURGH,,-33.80269763,151.21293253,33.998960603343704,NE
"SHOP 6, 118 EDINBURGH ROAD",NSW,2068,CASTLECRAG,EDINBURGH,,-33.80269763,151.21293253,33.998960603343704,NE
"SHOP 1, 100 EDINBURGH ROAD",NSW,2068,CASTLECRAG,EDINBURGH,,-33.80273363,151.21223654,216.70260948133813,SW
"SHOP 2, 100 EDINBURGH ROAD",NSW,2068,CASTLECRAG,EDINBURGH,,-33.80273363,151.21223654,216.70260948133813,SW
"SHOP 4, 100 EDINBURGH ROAD",NSW,2068,CASTLECRAG,EDINBURGH,,-33.80273363,151.21223654,216.70260948133813,SW
"SHOP 5, 100 EDINBURGH ROAD",NSW,2068,CASTLECRAG,EDINBURGH,,-33.80273363,151.21223654,216.70260948133813,SW
"SHOP 6, 100 EDINBURGH ROAD",NSW,2068,CASTLECRAG,EDINBURGH,,-33.80273363,151.21223654,216.70260948133813,SW
"SHOP 9, 100 EDINBURGH ROAD",NSW,2068,CASTLECRAG,EDINBURGH,,-33.80273363,151.21223654,216.70260948133813,SW
"SHOP 14, 100 EDINBURGH ROAD",NSW,2068,CASTLECRAG,EDINBURGH,,-33.80273363,151.21223654,216.70260948133813,SW
"SHOP 15, 100 EDINBURGH ROAD",NSW,2068,CASTLECRAG,EDINBURGH,,-33.80273363,151.21223654,216.70260948133813,SW
1 MINIMBAH ROAD,NSW,2063,NORTHBRIDGE,MINIMBAH,1,-33.80600636,151.22853121,172.47831069572442,S
17 MINIMBAH ROAD,NSW,2063,NORTHBRIDGE,MINIMBAH,82,-33.80548404,151.22728171,165.15288588623895,S
